FLOCK 3P-14             
1 42012U 17008BS  17073.87927738  .00004543  00000-0  20021-3 0  9998
2 42012  97.5073 135.4773 0007915 174.3302 185.8044 15.22297446  3986
